STARLINK-1845           
1 47135U 20088P   26094.14836061  .00188274  00000+0  22119-2 0  9994
2 47135  53.0497 153.8907 0007351   9.2158 350.8988 15.60310421296140
STARLINK-1856           
1 47143U 20088X   26094.25002315  .00159239  00000+0  23667-2 0  9990
2 47143  53.0483 150.3075 0002627 307.4861  51.0286 15.54138966  5916
STARLINK-1871           
1 47157U 20088AM  26094.25366379 -.00011223  00000+0 -36750-3 0  9998
2 47157  53.1572 177.6256 0001456  92.4771 267.6397 15.30187375295836
STARLINK-1873           
1 47158U 20088AN  26094.16956268  .00176462  00000+0  19064-2 0  9994
2 47158  53.0465 144.8340 0003016 282.0005  78.0670 15.62549259296273
STARLINK-1876           
1 47161U 20088AR  26094.28609246  .00152939  00000+0  12567-2 0  9996
2 47161  53.0486 145.8705 0005888  44.3398 315.8089 15.69445777296272
STARLINK-1888           
1 47171U 20088BB  26093.45457173  .00096552  00000+0  15034-2 0  9995
2 47171  53.0513 160.5509 0003257 338.8961  21.1913 15.53125448295999
STARLINK-1912           
1 47178U 20088BJ  26094.25002315  .00143492  00000+0  16030-2 0  9998
2 47178  53.0487 157.1957 0005419 302.3704 150.1042 15.61798423  5935
STARLINK-1913           
1 47179U 20088BK  26094.27792716  .00005810  00000+0  20819-3 0  9994
2 47179  53.1593 188.2029 0001473  98.5124 261.6043 15.30191688295684
LUCAS (JDRS-1)          
1 47202U 20089A   26094.14003204 -.00000236  00000+0  00000+0 0  9999
2 47202   0.0308 266.6392 0002694 102.9191 324.0910  1.00272689 19673
FALCON EYE 2            
1 47226U 20090A   26094.24742903  .00002383  00000+0  28611-3 0  9990
2 47226  97.8486 170.0169 0001200  97.6676 262.4675 14.84935436289269
GONETS-M 20             
1 47227U 20091A   26094.27103910  .00000007  00000+0 -17151-4 0  9994
2 47227  82.5100 348.3908 0021066 344.6925  15.3515 12.42891103241898
GONETS-M 21             
1 47228U 20091B   26094.24445819  .00000076  00000+0  47617-3 0  9993
2 47228  82.5025 347.1601 0015141 359.8771   0.2302 12.42882372241880
GONETS-M 22             
1 47229U 20091C   26094.29838838 -.00000017  00000+0 -19183-3 0  9990
2 47229  82.5081 347.9904 0021825 339.8089  20.2126 12.42888787241841
COSMOS 2548             
1 47230U 20091D   26094.27392720  .00000046  00000+0  26155-3 0  9992
2 47230  82.5058 347.6285 0015340 358.9109   1.1935 12.42928083241879
GAOFEN-14 01            
1 47231U 20092A   26093.49995476  .00017414  00000+0  69050-3 0  9992
2 47231  97.4777 163.7862 0005851  54.7142 305.4642 15.25432757296445
SXM-7                   
1 47240U 20096A   26093.87413584 -.00000206  00000+0  00000+0 0  9991
2 47240   0.0279 117.6791 0004754   5.2358 298.8032  1.00271174  6698
IPM 2 & BREEZE-M R/B    
1 47242U 20097A   26093.99025799 -.00000065  00000+0  00000+0 0  9997
2 47242   5.1619  77.6088 0083577 276.9789  82.2224  0.95297339 18564
CMS-01                  
1 47256U 20099A   26094.22614111 -.00000165  00000+0  00000+0 0  9994
2 47256   0.0984  91.3945 0005349 203.0802  62.4638  1.00272421 19451
ONEWEB-0102             
1 47258U 20100A   26094.26013578 -.00000157  00000+0 -47237-3 0  9992
2 47258  87.9009   5.3602 0002014  80.5630 279.5727 13.12444099255037
ONEWEB-0109             
1 47259U 20100B   26094.26862050  .00000394  00000+0  10604-2 0  9998
2 47259  87.9019   5.3351 0001855  74.7988 285.3345 13.12445836254864
ONEWEB-0110             
1 47260U 20100C   26094.21948703  .00000102  00000+0  24752-3 0  9992
2 47260  87.9016   5.3296 0001998  82.2123 277.9232 13.12442647255022
ONEWEB-0111             
1 47261U 20100D   26094.24996992 -.00000450  00000+0 -12858-2 0  9990
2 47261  87.9020   5.3419 0001799  82.5256 277.6077 13.12443836254860
ONEWEB-0114             
1 47262U 20100E   26094.28047204  .00000432  00000+0  11668-2 0  9994
2 47262  87.9019   5.3321 0001707  69.4581 290.6731 13.12444533254828
ONEWEB-0117             
1 47263U 20100F   26094.27199739  .00000371  00000+0  99663-3 0  9999
2 47263  87.9020   5.3264 0001855  79.5087 280.6251 13.12445551254832
ONEWEB-0118             
1 47264U 20100G   26094.22964390 -.00000200  00000+0 -59224-3 0  9990
2 47264  87.9015   5.3381 0001519  70.1732 289.9561 13.12443849255024
ONEWEB-0119             
1 47265U 20100H   26094.25505393  .00000009  00000+0 -11137-4 0  9996
2 47265  87.9008   5.3563 0001782  77.9083 282.2245 13.12446461255001
ONEWEB-0120             
1 47266U 20100J   26094.27891652  .00000524  00000+0  14209-2 0  9997
2 47266  87.9005   5.3525 0001794  74.9226 285.2101 13.12445047255032
ONEWEB-0121             
1 47267U 20100K   26094.26691554  .00000401  00000+0  10797-2 0  9998
2 47267  87.9017   5.3336 0001910  83.5370 276.5976 13.12446022254948
ONEWEB-0122             
1 47268U 20100L   26094.26099289  .00000199  00000+0  51813-3 0  9995
2 47268  87.9021   5.3375 0001945  76.3081 283.8264 13.12445300254853
ONEWEB-0123             
1 47269U 20100M   26094.25674578 -.00000100  00000+0 -31274-3 0  9998
2 47269  87.9008   5.3548 0001667  77.7519 282.3796 13.12445679254991
ONEWEB-0124             
1 47270U 20100N   26094.24658276 -.00000528  00000+0 -15022-2 0  9992
2 47270  87.9007   5.3611 0001751  83.2615 276.8713 13.12443671254870
ONEWEB-0125             
1 47271U 20100P   26094.22456943 -.00000101  00000+0 -31505-3 0  9990
2 47271  87.9015   5.3402 0001533  86.4853 273.6451 13.12442329254935
ONEWEB-0126             
1 47272U 20100Q   26094.24502681 -.00000463  00000+0 -13222-2 0  9990
2 47272  87.9014   5.3565 0001773  74.0828 286.0496 13.12444545255004
ONEWEB-0127             
1 47273U 20100R   26094.21102582  .00000383  00000+0  10298-2 0  9993
2 47273  87.9004   5.3660 0001848  73.9879 286.1453 13.12443489255029
ONEWEB-0128             
1 47274U 20100S   26094.23303077 -.00000268  00000+0 -78135-3 0  9997
2 47274  87.9003   5.3760 0002061  84.7222 275.4142 13.12441243255044
ONEWEB-0129             
1 47275U 20100T   26094.21270990  .00000310  00000+0  82720-3 0  9994
2 47275  87.9014   5.3458 0002323  49.7187 310.4144 13.12444206254978
ONEWEB-0130             
1 47276U 20100U   26094.23980669 -.00000576  00000+0 -16376-2 0  9997
2 47276  87.9018   5.3347 0001873  76.8463 283.2874 13.12443141254948
ONEWEB-0131             
1 47277U 20100V   26094.23641882 -.00000515  00000+0 -14677-2 0  9994
2 47277  87.9006   5.3613 0001835  77.6640 282.4694 13.12442691254980
ONEWEB-0132             
1 47278U 20100W   26094.26522859  .00000301  00000+0  80089-3 0  9992
2 47278  87.9010   5.3555 0001839  80.1041 280.0295 13.12445775254885
ONEWEB-0133             
1 47279U 20100X   26094.28203752  .00000469  00000+0  12670-2 0  9998
2 47279  87.9021   5.3204 0001915  81.7020 278.4326 13.12444353255044
ONEWEB-0134             
1 47280U 20100Y   26094.25166426 -.00000391  00000+0 -11214-2 0  9992
2 47280  87.9021   5.3230 0002065  76.7508 283.3851 13.12443937255019
ONEWEB-0135             
1 47281U 20100Z   26094.22287060 -.00000016  00000+0 -81073-4 0  9994
2 47281  87.9004   5.3615 0002128  79.0223 281.1145 13.12441189255039
ONEWEB-0136             
1 47282U 20100AA  26094.24150868 -.00000329  00000+0 -94853-3 0  9998
2 47282  87.9017   5.3327 0002167  75.1623 284.9746 13.12442586254969
ONEWEB-0137             
1 47283U 20100AB  26094.27539967  .00000468  00000+0  12655-2 0  9994
2 47283  87.9021   5.3327 0001645  77.7495 282.3818 13.12443704254875
ONEWEB-0138             
1 47284U 20100AC  26094.25335709 -.00000319  00000+0 -92103-3 0  9995
2 47284  87.9018   5.3451 0001981  74.8382 285.2966 13.12443792254958
ONEWEB-0139             
1 47285U 20100AD  26094.21792945  .00000168  00000+0  43207-3 0  9992
2 47285  87.9014   5.3396 0001812  77.0624 283.0707 13.12440595255026
ONEWEB-0140             
1 47286U 20100AE  26094.24827750 -.00000367  00000+0 -10559-2 0  9995
2 47286  87.9020   5.3226 0001877  82.8886 277.2456 13.12444833254991
ONEWEB-0141             
1 47287U 20100AF  26094.21765180  .00000216  00000+0  56530-3 0  9992
2 47287  87.9015   5.3348 0001508  73.6098 286.5197 13.12440931254973
ONEWEB-0142             
1 47288U 20100AG  26094.28230923  .00000445  00000+0  12014-2 0  9994
2 47288  87.9018   5.3462 0001664  65.2801 294.8500 13.12441030254977
ONEWEB-0143             
1 47289U 20100AH  26094.21609715  .00000236  00000+0  61970-3 0  9991
2 47289  87.9014   5.3559 0001765  78.0511 282.0816 13.12441224254944
ONEWEB-0144             
1 47290U 20100AJ  26094.26354063  .00000262  00000+0  69241-3 0  9999
2 47290  87.9021   5.3169 0001960  69.6831 290.4508 13.12444690254872
ONEWEB-0145             
1 47291U 20100AK  26094.23473029 -.00000325  00000+0 -93807-3 0  9998
2 47291  87.9012   5.3584 0001795  75.2479 284.8848 13.12444336255064
ONEWEB-0146             
1 47292U 20100AL  26094.23133853 -.00000269  00000+0 -78221-3 0  9997
2 47292  87.9015   5.3460 0001821  89.6183 270.5154 13.12443473254974
ONEWEB-0147             
1 47293U 20100AM  26094.27369375  .00000449  00000+0  12133-2 0  9999
2 47293  87.9016   5.3179 0001926  79.6970 280.4376 13.12448769254870
YAOGAN-33 01            
1 47302U 20103A   26094.29060170  .00000794  00000+0  17913-3 0  9991
2 47302  98.0518 338.1858 0003504  29.5780 330.5618 14.58866043280537
WEINA 2                 
1 47303U 20103B   26094.26013608  .00001887  00000+0  36167-3 0  9999
2 47303  98.0631 344.9512 0003669  74.7137 285.4472 14.64915924280903
TURKSAT 5A              
1 47306U 21001A   26093.75449572  .00000152  00000+0  00000+0 0  9993
2 47306   0.0159 121.6538 0000156 318.9230  54.0284  1.00272086 19224
TIANTONG-1 3            
1 47321U 21003A   26094.40630075 -.00000157  00000+0  00000+0 0  9991
2 47321   1.8217 335.0569 0003272  45.8361  39.6093  1.00273940 19220
GMS-T                   
1 47346U 21004A   26093.91780919  .00000030  00000+0  56058-4 0  9995
2 47346  90.1216 240.9251 0001390 204.9908 155.1157 13.16658074249824
